<?xml version="1.0" encoding="utf-8"?>
<ndm xmlns:xsi="http://www.w3.org/2001/XMLSchema-instance" xsi:noNamespaceSchemaLocation="http://sanaregistry.org/r/ndmxml/ndmxml-1.0-master.xsd">
<cdm id="CCSDS_CDM_VERS" version="1.0">
<header>
<CREATION_DATE>2020-02-01T02:24:00.000000</CREATION_DATE>
<ORIGINATOR>CLOSEAP</ORIGINATOR>
<MESSAGE_ID>00000A_00999A_2002030224_2002010224</MESSAGE_ID>
</header>
<body>
<relativeMetadataData>
<COMMENT>0.385233240830606E-002    1.320    0.250    0.250    4.000    0.250    4.000</COMMENT>
<TCA>2020-02-03T02:24:00.027794</TCA>
<MISS_DISTANCE units="m">159.283061298799</MISS_DISTANCE>
<RELATIVE_SPEED units="m/s">4024.11372827611</RELATIVE_SPEED>
<relativeStateVector>
<RELATIVE_POSITION_R units="m">-25.8699001505888</RELATIVE_POSITION_R>
<RELATIVE_POSITION_T units="m">-156.211994609050</RELATIVE_POSITION_T>
<RELATIVE_POSITION_N units="m">-17.3105350324541</RELATIVE_POSITION_N>
<RELATIVE_VELOCITY_R units="m/s">3940.46783172349</RELATIVE_VELOCITY_R>
<RELATIVE_VELOCITY_T units="m/s">-590.080806987156</RELATIVE_VELOCITY_T>
<RELATIVE_VELOCITY_N units="m/s">-563.923050138949</RELATIVE_VELOCITY_N>
</relativeStateVector>
<START_SCREEN_PERIOD>2020-02-01T02:24:00.000000Z</START_SCREEN_PERIOD>
<STOP_SCREEN_PERIOD>2020-02-11T02:24:00.000000Z</STOP_SCREEN_PERIOD>
<SCREEN_VOLUME_FRAME>RTN</SCREEN_VOLUME_FRAME>
<SCREEN_VOLUME_SHAPE>ELLIPSOID</SCREEN_VOLUME_SHAPE>
<SCREEN_VOLUME_X units="m">9999000.00000000</SCREEN_VOLUME_X>
<SCREEN_VOLUME_Y units="m">9999000.00000000</SCREEN_VOLUME_Y>
<SCREEN_VOLUME_Z units="m">9999000.00000000</SCREEN_VOLUME_Z>
<SCREEN_ENTRY_TIME>2020-02-03T01:50:54.470447Z</SCREEN_ENTRY_TIME>
<SCREEN_EXIT_TIME>2020-02-03T03:01:14.598772Z</SCREEN_EXIT_TIME>
<COLLISION_PROBABILITY>0.316572944685270E-002</COLLISION_PROBABILITY>
<COLLISION_PROBABILITY_METHOD>AKELLAALFRIEND-2000</COLLISION_PROBABILITY_METHOD>
</relativeMetadataData>
<segment>
<metadata>
<COMMENT>BASED ON GMV/SSTODSW</COMMENT>
<COMMENT>HBR FROM CONF PANEL</COMMENT>
<OBJECT>OBJECT1</OBJECT>
<OBJECT_DESIGNATOR>00000A</OBJECT_DESIGNATOR>
<CATALOG_NAME>CLOSEAP</CATALOG_NAME>
<OBJECT_NAME>DUMMY_A</OBJECT_NAME>
<INTERNATIONAL_DESIGNATOR>2000-000A</INTERNATIONAL_DESIGNATOR>
<EPHEMERIS_NAME>GMV/SSTODSW</EPHEMERIS_NAME>
<COVARIANCE_METHOD>DEFAULT</COVARIANCE_METHOD>
<MANEUVERABLE>N/A</MANEUVERABLE>
<REF_FRAME>EME2000</REF_FRAME>
</metadata>
<data>
<odParameters>
</odParameters>
<additionalParameters>
<AREA_PC units="m**2">78.5398163397448</AREA_PC>
<CD_AREA_OVER_MASS units="m**2/kg">0.126105011081956E-001</CD_AREA_OVER_MASS>
<CR_AREA_OVER_MASS units="m**2/kg">0.764272794436094E-002</CR_AREA_OVER_MASS>
</additionalParameters>
<stateVector>
<X units="km">3559.78675384428</X>
<Y units="km">-14002.4498919430</Y>
<Z units="km">-18.2655427649972</Z>
<X_DOT units="km/s">5.09027867760163</X_DOT>
<Y_DOT units="km/s">1.29473677467996</Y_DOT>
<Z_DOT units="km/s">-0.944654513977188E-002</Z_DOT>
</stateVector>
<covarianceMatrix>
<CR_R units="m**2">119.193177546373</CR_R>
<CT_R units="m**2">22.5957840249075</CT_R>
<CT_T units="m**2">7437.19005738041</CT_T>
<CN_R units="m**2">267.827400467979</CN_R>
<CN_T units="m**2">102.021398938642</CN_T>
<CN_N units="m**2">786.073492429532</CN_N>
<CRDOT_R units="m**2/s">-0.792941127284637E-002</CRDOT_R>
<CRDOT_T units="m**2/s">-2.54734727461581</CRDOT_T>
<CRDOT_N units="m**2/s">-0.359968577304518E-001</CRDOT_N>
<CRDOT_RDOT units="m**2/s**2">0.885731896499129E-003</CRDOT_RDOT>
<CTDOT_R units="m**2/s">-0.433590325319410E-001</CTDOT_R>
<CTDOT_T units="m**2/s">-0.154576118586899E-001</CTDOT_T>
<CTDOT_N units="m**2/s">-0.974838364482224E-001</CTDOT_N>
<CTDOT_RDOT units="m**2/s**2">0.543836398987091E-005</CTDOT_RDOT>
<CTDOT_TDOT units="m**2/s**2">0.157806405561911E-004</CTDOT_TDOT>
<CNDOT_R units="m**2/s">0.423045282616941E-003</CNDOT_R>
<CNDOT_T units="m**2/s">0.310169452334876</CNDOT_T>
<CNDOT_N units="m**2/s">0.150221693849838E-002</CNDOT_N>
<CNDOT_RDOT units="m**2/s**2">-0.761901354306809E-004</CNDOT_RDOT>
<CNDOT_TDOT units="m**2/s**2">-0.283678452991386E-006</CNDOT_TDOT>
<CNDOT_NDOT units="m**2/s**2">0.105368074569139E-003</CNDOT_NDOT>
</covarianceMatrix>
</data>
</segment>
<segment>
<metadata>
<COMMENT>BASED ON GMV/SSTODSW</COMMENT>
<COMMENT>HBR FROM CONF PANEL</COMMENT>
<OBJECT>OBJECT2</OBJECT>
<OBJECT_DESIGNATOR>00999A</OBJECT_DESIGNATOR>
<CATALOG_NAME>CLOSEAP</CATALOG_NAME>
<OBJECT_NAME>DUMMY_B</OBJECT_NAME>
<INTERNATIONAL_DESIGNATOR>2000-999A</INTERNATIONAL_DESIGNATOR>
<EPHEMERIS_NAME>GMV/SSTODSW</EPHEMERIS_NAME>
<COVARIANCE_METHOD>DEFAULT</COVARIANCE_METHOD>
<MANEUVERABLE>N/A</MANEUVERABLE>
<REF_FRAME>EME2000</REF_FRAME>
</metadata>
<data>
<odParameters>
</odParameters>
<additionalParameters>
<AREA_PC units="m**2">78.5398163397448</AREA_PC>
<CD_AREA_OVER_MASS units="m**2/kg">0.126105011081956E-001</CD_AREA_OVER_MASS>
<CR_AREA_OVER_MASS units="m**2/kg">0.764272794436094E-002</CR_AREA_OVER_MASS>
</additionalParameters>
<stateVector>
<X units="km">3559.62894840994</X>
<Y units="km">-14002.4632951848</Y>
<Z units="km">-18.2825395769814</Z>
<X_DOT units="km/s">5.48811711220246</X_DOT>
<Y_DOT units="km/s">-2.66919704571060</Y_DOT>
<Z_DOT units="km/s">-0.577288552760291</Z_DOT>
</stateVector>
<covarianceMatrix>
<CR_R units="m**2">9958.57971795791</CR_R>
<CT_R units="m**2">11048.3284895838</CT_R>
<CT_T units="m**2">12731.3658296076</CT_T>
<CN_R units="m**2">108.844077137099</CN_R>
<CN_T units="m**2">-122.741091420142</CN_T>
<CN_N units="m**2">2501.68602802354</CN_N>
<CRDOT_R units="m**2/s">-4.71629115300780</CRDOT_R>
<CRDOT_T units="m**2/s">-5.33882281617630</CRDOT_T>
<CRDOT_N units="m**2/s">0.483844562251596E-001</CRDOT_N>
<CRDOT_RDOT units="m**2/s**2">0.226271971998592E-002</CRDOT_RDOT>
<CTDOT_R units="m**2/s">-0.105861894386511</CTDOT_R>
<CTDOT_T units="m**2/s">-0.283170145454051E-001</CTDOT_T>
<CTDOT_N units="m**2/s">-0.838476476151955E-001</CTDOT_N>
<CTDOT_RDOT units="m**2/s**2">0.257619005933187E-004</CTDOT_RDOT>
<CTDOT_TDOT units="m**2/s**2">0.215206718697889E-004</CTDOT_TDOT>
<CNDOT_R units="m**2/s">-0.425509429463877</CNDOT_R>
<CNDOT_T units="m**2/s">-0.370928516183008</CNDOT_T>
<CNDOT_N units="m**2/s">0.503729104790925</CNDOT_N>
<CNDOT_RDOT units="m**2/s**2">0.199178497029893E-003</CNDOT_RDOT>
<CNDOT_TDOT units="m**2/s**2">0.670569493237390E-005</CNDOT_TDOT>
<CNDOT_NDOT units="m**2/s**2">0.204819538454864E-003</CNDOT_NDOT>
</covarianceMatrix>
</data>
</segment>
</body>
</cdm>
</ndm>
